[{"OBJECT_NAME":"STARLINK-30144","OBJECT_ID":"2023-079N","EPOCH":"2026-03-09T11:12:52.591968","MEAN_MOTION":15.27165073,"ECCENTRICITY":2.537e-5,"INCLINATION":42.9924,"RA_OF_ASC_NODE":104.942,"ARG_OF_PERICENTER":240.8019,"MEAN_ANOMALY":119.2807,"EPHEMERIS_TYPE":0,"CLASSIFICATION_TYPE":"U","NORAD_CAT_ID":56835,"ELEMENT_SET_NO":999,"REV_AT_EPOCH":15289,"BSTAR":0.00074606889,"MEAN_MOTION_DOT":0.00020067,"MEAN_MOTION_DDOT":0},{"OBJECT_NAME":"PEGASUS R\/B","OBJECT_ID":"2007-015B","EPOCH":"2026-03-09T10:58:33.801024","MEAN_MOTION":15.26741121,"ECCENTRICITY":0.00105976,"INCLINATION":97.9168,"RA_OF_ASC_NODE":31.3919,"ARG_OF_PERICENTER":317.6341,"MEAN_ANOMALY":42.4077,"EPHEMERIS_TYPE":0,"CLASSIFICATION_TYPE":"U","NORAD_CAT_ID":31305,"ELEMENT_SET_NO":999,"REV_AT_EPOCH":3383,"BSTAR":0.00044093522,"MEAN_MOTION_DOT":0.00011537,"MEAN_MOTION_DDOT":0}]
